[{"OBJECT_NAME":"LYNK TOWER 6","OBJECT_ID":"2024-043AB","EPOCH":"2026-03-09T21:28:38.303328","MEAN_MOTION":15.29548678,"ECCENTRICITY":0.00097492,"INCLINATION":97.5426,"RA_OF_ASC_NODE":204.1954,"ARG_OF_PERICENTER":232.0253,"MEAN_ANOMALY":128.0107,"EPHEMERIS_TYPE":0,"CLASSIFICATION_TYPE":"U","NORAD_CAT_ID":59123,"ELEMENT_SET_NO":999,"REV_AT_EPOCH":11184,"BSTAR":0.00040142146,"MEAN_MOTION_DOT":0.0001144,"MEAN_MOTION_DDOT":0},{"OBJECT_NAME":"STARLINK-33558","OBJECT_ID":"2025-083K","EPOCH":"2026-03-09T04:34:55.780896","MEAN_MOTION":15.2760193,"ECCENTRICITY":7.998e-5,"INCLINATION":43.0021,"RA_OF_ASC_NODE":7.7636,"ARG_OF_PERICENTER":244.9996,"MEAN_ANOMALY":115.0773,"EPHEMERIS_TYPE":0,"CLASSIFICATION_TYPE":"U","NORAD_CAT_ID":63643,"ELEMENT_SET_NO":999,"REV_AT_EPOCH":4999,"BSTAR":0.00097657421,"MEAN_MOTION_DOT":0.00026726,"MEAN_MOTION_DDOT":0}]
